{
  "type": "FeatureCollection",
  "features": [
    {
      "type": "Feature",
      "properties": {
        "norad_id": 58701,
        "name": "TIANMU-1 16",
        "group": "weather",
        "lat": 5.207555504275796,
        "lon": -4.337374879334849,
        "alt_km": 494.4984657317955,
        "timestamp": "2025-12-20T03:42:47.035975+00:00",
        "meta_object_name": "TIANMU-1 16",
        "meta_object_id": "2024-004B",
        "meta_epoch": "2025-12-19T20:38:52.694304",
        "meta_mean_motion": 15.24522105,
        "meta_eccentricity": 0.0004312,
        "meta_inclination": 97.456,
        "meta_ra_of_asc_node": 174.6858,
        "meta_arg_of_pericenter": 263.6947,
        "meta_mean_anomaly": 96.38,
        "meta_ephemeris_type": 0,
        "meta_classification_type": "U",
        "meta_norad_cat_id": 58701,
        "meta_element_set_no": 999,
        "meta_rev_at_epoch": 10843,
        "meta_bstar": 0.00020962,
        "meta_mean_motion_dot": 5.085e-05,
        "meta_mean_motion_ddot": 0,
        "tle_line1": "1 58701U 24004B   25353.86033211  .00005085  00000+0  20962-3 0  9992",
        "tle_line2": "2 58701  97.4560 174.6858 0004312 263.6947  96.3800 15.24522105108439"
      },
      "geometry": {
        "type": "Point",
        "coordinates": [
          -4.337374879334849,
          5.207555504275796
        ]
      }
    },
    {
      "type": "Feature",
      "properties": {
        "norad_id": 58702,
        "name": "TIANMU-1 17",
        "group": "weather",
        "lat": -77.83081706777303,
        "lon": -42.02276569223835,
        "alt_km": 497.0344309592092,
        "timestamp": "2025-12-20T03:42:47.035985+00:00",
        "meta_object_name": "TIANMU-1 17",
        "meta_object_id": "2024-004C",
        "meta_epoch": "2025-12-19T20:16:24.119040",
        "meta_mean_motion": 15.24565702,
        "meta_eccentricity": 0.0003503,
        "meta_inclination": 97.4594,
        "meta_ra_of_asc_node": 175.084,
        "meta_arg_of_pericenter": 266.0031,
        "meta_mean_anomaly": 94.0806,
        "meta_ephemeris_type": 0,
        "meta_classification_type": "U",
        "meta_norad_cat_id": 58702,
        "meta_element_set_no": 999,
        "meta_rev_at_epoch": 10842,
        "meta_bstar": 0.00020278,
        "meta_mean_motion_dot": 4.923e-05,
        "meta_mean_motion_ddot": 0,
        "tle_line1": "1 58702U 24004C   25353.84472360  .00004923  00000+0  20278-3 0  9993",
        "tle_line2": "2 58702  97.4594 175.0840 0003503 266.0031  94.0806 15.24565702108425"
      },
      "geometry": {
        "type": "Point",
        "coordinates": [
          -42.02276569223835,
          -77.83081706777303
        ]
      }
    },
    {
      "type": "Feature",
      "properties": {
        "norad_id": 58703,
        "name": "TIANMU-1 18",
        "group": "weather",
        "lat": -8.529231594627761,
        "lon": 176.71562152370373,
        "alt_km": 496.20990015010557,
        "timestamp": "2025-12-20T03:42:47.035996+00:00",
        "meta_object_name": "TIANMU-1 18",
        "meta_object_id": "2024-004D",
        "meta_epoch": "2025-12-19T19:52:28.187328",
        "meta_mean_motion": 15.24550557,
        "meta_eccentricity": 0.0002864,
        "meta_inclination": 97.4611,
        "meta_ra_of_asc_node": 175.2642,
        "meta_arg_of_pericenter": 264.13,
        "meta_mean_anomaly": 95.9611,
        "meta_ephemeris_type": 0,
        "meta_classification_type": "U",
        "meta_norad_cat_id": 58703,
        "meta_element_set_no": 999,
        "meta_rev_at_epoch": 10842,
        "meta_bstar": 0.00018482,
        "meta_mean_motion_dot": 4.478e-05,
        "meta_mean_motion_ddot": 0,
        "tle_line1": "1 58703U 24004D   25353.82810402  .00004478  00000+0  18482-3 0  9994",
        "tle_line2": "2 58703  97.4611 175.2642 0002864 264.1300  95.9611 15.24550557108421"
      },
      "geometry": {
        "type": "Point",
        "coordinates": [
          176.71562152370373,
          -8.529231594627761
        ]
      }
    },
    {
      "type": "Feature",
      "properties": {
        "norad_id": 58990,
        "name": "INSAT-3DS",
        "group": "weather",
        "lat": 0.0168577779295931,
        "lon": -133.22707611803105,
        "alt_km": 35782.62911286339,
        "timestamp": "2025-12-20T03:42:47.036007+00:00",
        "meta_object_name": "INSAT-3DS",
        "meta_object_id": "2024-033A",
        "meta_epoch": "2025-12-18T15:23:52.092960",
        "meta_mean_motion": 1.00272396,
        "meta_eccentricity": 0.00010988,
        "meta_inclination": 0.0507,
        "meta_ra_of_asc_node": 110.1825,
        "meta_arg_of_pericenter": 160.7703,
        "meta_mean_anomaly": 129.6153,
        "meta_ephemeris_type": 0,
        "meta_classification_type": "U",
        "meta_norad_cat_id": 58990,
        "meta_element_set_no": 999,
        "meta_rev_at_epoch": 4525,
        "meta_bstar": 0,
        "meta_mean_motion_dot": -1.31e-06,
        "meta_mean_motion_ddot": 0,
        "tle_line1": "1 58990U 24033A   25352.64157515 -.00000131  00000+0  00000+0 0  9998",
        "tle_line2": "2 58990   0.0507 110.1825 0001098 160.7703 129.6153  1.00272396 45258"
      },
      "geometry": {
        "type": "Point",
        "coordinates": [
          -133.22707611803105,
          0.0168577779295931
        ]
      }
    },
    {
      "type": "Feature",
      "properties": {
        "norad_id": 59051,
        "name": "METEOR-M2 4",
        "group": "weather",
        "lat": -34.5910900973447,
        "lon": -43.00691479579411,
        "alt_km": 818.7292981838173,
        "timestamp": "2025-12-20T03:42:47.036018+00:00",
        "meta_object_name": "METEOR-M2 4",
        "meta_object_id": "2024-039A",
        "meta_epoch": "2025-12-19T19:26:09.953952",
        "meta_mean_motion": 14.22402303,
        "meta_eccentricity": 0.000666,
        "meta_inclination": 98.6776,
        "meta_ra_of_asc_node": 310.6081,
        "meta_arg_of_pericenter": 337.7929,
        "meta_mean_anomaly": 22.2959,
        "meta_ephemeris_type": 0,
        "meta_classification_type": "U",
        "meta_norad_cat_id": 59051,
        "meta_element_set_no": 999,
        "meta_rev_at_epoch": 9376,
        "meta_bstar": 2.0538e-05,
        "meta_mean_motion_dot": 2e-08,
        "meta_mean_motion_ddot": 0,
        "tle_line1": "1 59051U 24039A   25353.80983743  .00000002  00000+0  20538-4 0  9991",
        "tle_line2": "2 59051  98.6776 310.6081 0006660 337.7929  22.2959 14.22402303 93767"
      },
      "geometry": {
        "type": "Point",
        "coordinates": [
          -43.00691479579411,
          -34.5910900973447
        ]
      }
    },
    {
      "type": "Feature",
      "properties": {
        "norad_id": 60133,
        "name": "GOES 19",
        "group": "weather",
        "lat": 0.005204313701754092,
        "lon": 69.5040013575364,
        "alt_km": 35788.00118796036,
        "timestamp": "2025-12-20T03:42:47.036029+00:00",
        "meta_object_name": "GOES 19",
        "meta_object_id": "2024-119A",
        "meta_epoch": "2025-12-19T10:38:46.804128",
        "meta_mean_motion": 1.00271901,
        "meta_eccentricity": 0.0001077,
        "meta_inclination": 0.0077,
        "meta_ra_of_asc_node": 262.8367,
        "meta_arg_of_pericenter": 52.3942,
        "meta_mean_anomaly": 217.5699,
        "meta_ephemeris_type": 0,
        "meta_classification_type": "U",
        "meta_norad_cat_id": 60133,
        "meta_element_set_no": 999,
        "meta_rev_at_epoch": 516,
        "meta_bstar": 0,
        "meta_mean_motion_dot": -2.24e-06,
        "meta_mean_motion_ddot": 0,
        "tle_line1": "1 60133U 24119A   25353.44359727 -.00000224  00000+0  00000+0 0  9996",
        "tle_line2": "2 60133   0.0077 262.8367 0001077  52.3942 217.5699  1.00271901  5165"
      },
      "geometry": {
        "type": "Point",
        "coordinates": [
          69.5040013575364,
          0.005204313701754092
        ]
      }
    },
    {
      "type": "Feature",
      "properties": {
        "norad_id": 65815,
        "name": "FENGYUN 3H",
        "group": "weather",
        "lat": 41.90150100443356,
        "lon": 121.44368508739113,
        "alt_km": 821.7937807709341,
        "timestamp": "2025-12-20T03:42:47.036041+00:00",
        "meta_object_name": "FENGYUN 3H",
        "meta_object_id": "2025-219A",
        "meta_epoch": "2025-12-19T20:18:11.788128",
        "meta_mean_motion": 14.19906458,
        "meta_eccentricity": 7.23e-05,
        "meta_inclination": 98.6594,
        "meta_ra_of_asc_node": 293.2823,
        "meta_arg_of_pericenter": 104.6992,
        "meta_mean_anomaly": 255.4265,
        "meta_ephemeris_type": 0,
        "meta_classification_type": "U",
        "meta_norad_cat_id": 65815,
        "meta_element_set_no": 999,
        "meta_rev_at_epoch": 1193,
        "meta_bstar": 3.9271e-05,
        "meta_mean_motion_dot": 4e-07,
        "meta_mean_motion_ddot": 0,
        "tle_line1": "1 65815U 25219A   25353.84596977  .00000040  00000+0  39271-4 0  9996",
        "tle_line2": "2 65815  98.6594 293.2823 0000723 104.6992 255.4265 14.19906458 11930"
      },
      "geometry": {
        "type": "Point",
        "coordinates": [
          121.44368508739113,
          41.90150100443356
        ]
      }
    }
  ]
}